{
    "links": {
        "self": "http://www.neowsapp.com/rest/v1/neo/3788164?api_key=iIulBulltgU6a56xZRHN4H3l9WmuAYTsLGpBGhQ2"
    },
    "id": "3788164",
    "neo_reference_id": "3788164",
    "name": "(2017 UN44)",
    "designation": "2017 UN44",
    "nasa_jpl_url": "http://ssd.jpl.nasa.gov/sbdb.cgi?sstr=3788164",
    "absolute_magnitude_h": 24.9,
    "estimated_diameter": {
        "kilometers": {
            "estimated_diameter_min": 0.0278326768,
            "estimated_diameter_max": 0.0622357573
        },
        "meters": {
            "estimated_diameter_min": 27.8326768072,
            "estimated_diameter_max": 62.2357573367
        },
        "miles": {
            "estimated_diameter_min": 0.0172944182,
            "estimated_diameter_max": 0.0386714948
        },
        "feet": {
            "estimated_diameter_min": 91.3145593761,
            "estimated_diameter_max": 204.1855621004
        }
    },
    "is_potentially_hazardous_asteroid": false,
    "close_approach_data": [
        {
            "close_approach_date": "2017-11-15",
            "close_approach_date_full": "2017-Nov-15 14:39",
            "epoch_date_close_approach": 1510756740000,
            "relative_velocity": {
                "kilometers_per_second": "5.8901968893",
                "kilometers_per_hour": "21204.7088016159",
                "miles_per_hour": "13175.7814217596"
            },
            "miss_distance": {
                "astronomical": "0.1113121819",
                "lunar": "43.3004387591",
                "kilometers": "16652065.317292553",
                "miles": "10347113.5861331114"
            },
            "orbiting_body": "Earth"
        },
        {
            "close_approach_date": "2032-12-15",
            "close_approach_date_full": "2032-Dec-15 19:04",
            "epoch_date_close_approach": 1986750240000,
            "relative_velocity": {
                "kilometers_per_second": "11.9923575466",
                "kilometers_per_hour": "43172.4871677301",
                "miles_per_hour": "26825.704595971"
            },
            "miss_distance": {
                "astronomical": "0.3328994543",
                "lunar": "129.4978877227",
                "kilometers": "49801049.287442341",
                "miles": "30944937.0914166658"
            },
            "orbiting_body": "Earth"
        },
        {
            "close_approach_date": "2171-12-25",
            "close_approach_date_full": "2171-Dec-25 07:07",
            "epoch_date_close_approach": 6373926420000,
            "relative_velocity": {
                "kilometers_per_second": "13.4419793415",
                "kilometers_per_hour": "48391.1256295519",
                "miles_per_hour": "30068.3635890957"
            },
            "miss_distance": {
                "astronomical": "0.3456652343",
                "lunar": "134.4637761427",
                "kilometers": "51710782.784330941",
                "miles": "32131590.4605353458"
            },
            "orbiting_body": "Earth"
        }
    ],
    "orbital_data": {
        "orbit_id": "3",
        "orbit_determination_date": "2017-12-12 06:25:16",
        "first_observation_date": "2017-10-28",
        "last_observation_date": "2017-12-11",
        "data_arc_in_days": 44,
        "observations_used": 16,
        "orbit_uncertainty": "7",
        "minimum_orbit_intersection": ".11067",
        "jupiter_tisserand_invariant": "3.293",
        "epoch_osculation": "2459000.5",
        "eccentricity": ".546246812200085",
        "semi_major_axis": "2.418221277574865",
        "inclination": "2.483620430361552",
        "ascending_node_longitude": "74.07002852771687",
        "orbital_period": "1373.543708872697",
        "perihelion_distance": "1.097275613505178",
        "perihelion_argument": "346.640321832809",
        "aphelion_distance": "3.739166941644552",
        "perihelion_time": "2459449.850552177023",
        "mean_anomaly": "242.2271197204972",
        "mean_motion": ".2620957729080652",
        "equinox": "J2000",
        "orbit_class": {
            "orbit_class_type": "AMO",
            "orbit_class_description": "Near-Earth asteroid orbits similar to that of 1221 Amor",
            "orbit_class_range": "1.017 AU < q (perihelion) < 1.3 AU"
        }
    },
    "is_sentry_object": false
}